{"type": "FeatureCollection", "features": [{"id": 2820, "type": "Feature", "geometry": {"type": "MultiPolygon", "coordinates": [[[[-48.05, -15.5], [-47.62, -15.5], [-47.62, -15.5], [-47.62, -15.5], [-47.59, -15.51], [-47.59, -15.51], [-47.57, -15.51], [-47.57, -15.51], [-47.57, -15.51], [-47.57, -15.51], [-47.57, -15.51], [-47.56, -15.51], [-47.56, -15.5], [-47.56, -15.5], [-47.42, -15.5], [-47.42, -15.55], [-47.42, -15.55], [-47.41, -15.55], [-47.41, -15.55], [-47.41, -15.55], [-47.41, -15.55], [-47.4, -15.55], [-47.4, -15.55], [-47.4, -15.55], [-47.4, -15.55], [-47.4, -15.55], [-47.4, -15.55], [-47.4, -15.56], [-47.4, -15.56], [-47.39, -15.56], [-47.39, -15.56], [-47.39, -15.56], [-47.39, -15.56], [-47.39, -15.56], [-47.39, -15.56], [-47.39, -15.57], [-47.39, -15.57], [-47.39, -15.57], [-47.38, -15.57], [-47.38, -15.57], [-47.38, -15.57], [-47.38, -15.57], [-47.38, -15.57], [-47.38, -15.57], [-47.38, -15.58], [-47.38, -15.58], [-47.37, -15.58], [-47.37, -15.58], [-47.37, -15.58], [-47.36, -15.58], [-47.36, -15.58], [-47.36, -15.58], [-47.36, -15.58], [-47.36, -15.58], [-47.36, -15.58], [-47.36, -15.58], [-47.36, -15.58], [-47.36, -15.58], [-47.35, -15.58], [-47.35, -15.58], [-47.35, -15.58], [-47.34, -15.58], [-47.34, -15.59], [-47.33, -15.59], [-47.33, -15.59], [-47.33, -15.59], [-47.33, -15.59], [-47.33, -15.59], [-47.32, -15.59], [-47.32, -15.59], [-47.32, -15.59], [-47.32, -15.59], [-47.32, -15.59], [-47.32, -15.59], [-47.32, -15.59], [-47.32, -15.59], [-47.32, -15.59], [-47.32, -15.59], [-47.32, -15.6], [-47.32, -15.6], [-47.32, -15.6], [-47.32, -15.6], [-47.32, -15.6], [-47.32, -15.6], [-47.32, -15.6], [-47.32, -15.6], [-47.32, -15.6], [-47.32, -15.6], [-47.32, -15.6], [-47.32, -15.61], [-47.33, -15.61], [-47.32, -15.61], [-47.33, -15.61], [-47.33, -15.61], [-47.33, -15.61], [-47.33, -15.61], [-47.33, -15.61], [-47.33, -15.61], [-47.33, -15.62], [-47.33, -15.62], [-47.33, -15.62], [-47.33, -15.62], [-47.33, -15.62], [-47.33, -15.62], [-47.33, -15.62], [-47.33, -15.62], [-47.33, -15.63], [-47.33, -15.63], [-47.33, -15.63], [-47.33, -15.63], [-47.33, -15.63], [-47.33, -15.63], [-47.33, -15.64], [-47.33, -15.64], [-47.33, -15.64], [-47.33, -15.64], [-47.33, -15.65], [-47.33, -15.65], [-47.33, -15.65], [-47.33, -15.65], [-47.33, -15.65], [-47.33, -15.65], [-47.33, -15.65], [-47.33, -15.65], [-47.33, -15.66], [-47.33, -15.66], [-47.33, -15.66], [-47.33, -15.66], [-47.33, -15.66], [-47.33, -15.66], [-47.33, -15.66], [-47.33, -15.66], [-47.33, -15.66], [-47.33, -15.66], [-47.33, -15.66], [-47.33, -15.67], [-47.33, -15.67], [-47.33, -15.67], [-47.33, -15.67], [-47.33, -15.67], [-47.33, -15.67], [-47.33, -15.67], [-47.33, -15.68], [-47.33, -15.68], [-47.33, -15.68], [-47.33, -15.68], [-47.33, -15.68], [-47.33, -15.68], [-47.33, -15.68], [-47.33, -15.68], [-47.33, -15.68], [-47.33, -15.68], [-47.33, -15.68], [-47.33, -15.69], [-47.33, -15.69], [-47.33, -15.69], [-47.33, -15.69], [-47.32, -15.69], [-47.32, -15.69], [-47.32, -15.69], [-47.32, -15.69], [-47.32, -15.69], [-47.32, -15.69], [-47.32, -15.69], [-47.32, -15.69], [-47.32, -15.69], [-47.32, -15.69], [-47.32, -15.7], [-47.31, -15.69], [-47.31, -15.7], [-47.31, -15.7], [-47.31, -15.7], [-47.31, -15.7], [-47.31, -15.7], [-47.31, -15.7], [-47.31, -15.7], [-47.31, -15.71], [-47.31, -15.71], [-47.31, -15.71], [-47.31, -15.71], [-47.31, -15.71], [-47.32, -15.71], [-47.31, -15.71], [-47.32, -15.71], [-47.32, -15.72], [-47.32, -15.72], [-47.32, -15.72], [-47.32, -15.72], [-47.32, -15.72], [-47.32, -15.72], [-47.32, -15.72], [-47.32, -15.72], [-47.32, -15.72], [-47.32, -15.72], [-47.32, -15.72], [-47.32, -15.72], [-47.32, -15.73], [-47.32, -15.73], [-47.32, -15.73], [-47.32, -15.73], [-47.32, -15.73], [-47.32, -15.73], [-47.32, -15.73], [-47.32, -15.73], [-47.32, -15.74], [-47.32, -15.73], [-47.32, -15.74], [-47.32, -15.74], [-47.32, -15.74], [-47.32, -15.74], [-47.32, -15.74], [-47.31, -15.74], [-47.31, -15.74], [-47.31, -15.74], [-47.31, -15.74], [-47.32, -15.74], [-47.31, -15.75], [-47.31, -15.75], [-47.31, -15.75], [-47.32, -15.75], [-47.32, -15.75], [-47.32, -15.75], [-47.32, -15.75], [-47.32, -15.75], [-47.32, -15.75], [-47.32, -15.75], [-47.32, -15.75], [-47.32, -15.75], [-47.32, -15.75], [-47.32, -15.76], [-47.32, -15.75], [-47.32, -15.76], [-47.32, -15.76], [-47.32, -15.76], [-47.32, -15.76], [-47.33, -15.76], [-47.33, -15.76], [-47.33, -15.76], [-47.33, -15.77], [-47.33, -15.77], [-47.33, -15.77], [-47.33, -15.77], [-47.33, -15.77], [-47.33, -15.77], [-47.33, -15.77], [-47.33, -15.77], [-47.33, -15.77], [-47.33, -15.77], [-47.33, -15.77], [-47.33, -15.77], [-47.33, -15.77], [-47.33, -15.77], [-47.33, -15.78], [-47.33, -15.78], [-47.33, -15.78], [-47.33, -15.78], [-47.33, -15.78], [-47.33, -15.78], [-47.33, -15.78], [-47.34, -15.78], [-47.34, -15.78], [-47.34, -15.78], [-47.34, -15.79], [-47.34, -15.78], [-47.34, -15.79], [-47.34, -15.79], [-47.34, -15.79], [-47.34, -15.79], [-47.34, -15.79], [-47.34, -15.79], [-47.34, -15.79], [-47.34, -15.79], [-47.34, -15.79], [-47.34, -15.79], [-47.34, -15.79], [-47.34, -15.8], [-47.34, -15.79], [-47.34, -15.8], [-47.34, -15.79], [-47.34, -15.8], [-47.34, -15.8], [-47.35, -15.8], [-47.35, -15.8], [-47.35, -15.8], [-47.34, -15.8], [-47.35, -15.8], [-47.35, -15.8], [-47.35, -15.8], [-47.35, -15.8], [-47.35, -15.8], [-47.35, -15.8], [-47.35, -15.8], [-47.35, -15.8], [-47.35, -15.8], [-47.35, -15.81], [-47.35, -15.81], [-47.35, -15.81], [-47.35, -15.81], [-47.35, -15.81], [-47.35, -15.81], [-47.35, -15.81], [-47.35, -15.81], [-47.35, -15.81], [-47.35, -15.81], [-47.35, -15.81], [-47.35, -15.81], [-47.35, -15.81], [-47.35, -15.81], [-47.36, -15.82], [-47.35, -15.82], [-47.35, -15.82], [-47.36, -15.82], [-47.36, -15.82], [-47.35, -15.82], [-47.36, -15.82], [-47.35, -15.82], [-47.36, -15.82], [-47.36, -15.82], [-47.36, -15.82], [-47.36, -15.82], [-47.36, -15.82], [-47.36, -15.82], [-47.36, -15.82], [-47.36, -15.82], [-47.36, -15.83], [-47.36, -15.83], [-47.36, -15.83], [-47.37, -15.83], [-47.37, -15.83], [-47.37, -15.83], [-47.37, -15.83], [-47.37, -15.83], [-47.37, -15.83], [-47.37, -15.83], [-47.37, -15.84], [-47.37, -15.84], [-47.37, -15.84], [-47.37, -15.84], [-47.37, -15.84], [-47.37, -15.84], [-47.37, -15.84], [-47.37, -15.84], [-47.37, -15.84], [-47.37, -15.84], [-47.37, -15.84], [-47.37, -15.85], [-47.37, -15.85], [-47.37, -15.85], [-47.37, -15.85], [-47.37, -15.85], [-47.37, -15.85], [-47.37, -15.85], [-47.37, -15.85], [-47.37, -15.85], [-47.37, -15.85], [-47.37, -15.85], [-47.37, -15.86], [-47.37, -15.86], [-47.37, -15.86], [-47.37, -15.86], [-47.37, -15.86], [-47.37, -15.86], [-47.37, -15.86], [-47.37, -15.87], [-47.37, -15.86], [-47.37, -15.87], [-47.37, -15.87], [-47.37, -15.87], [-47.37, -15.87], [-47.37, -15.87], [-47.37, -15.87], [-47.37, -15.87], [-47.38, -15.88], [-47.38, -15.88], [-47.38, -15.88], [-47.38, -15.88], [-47.38, -15.88], [-47.38, -15.89], [-47.38, -15.89], [-47.38, -15.89], [-47.38, -15.89], [-47.38, -15.89], [-47.38, -15.89], [-47.38, -15.89], [-47.38, -15.89], [-47.38, -15.89], [-47.38, -15.9], [-47.38, -15.9], [-47.37, -15.9], [-47.38, -15.9], [-47.38, -15.9], [-47.37, -15.9], [-47.37, -15.91], [-47.37, -15.91], [-47.37, -15.91], [-47.37, -15.91], [-47.37, -15.91], [-47.37, -15.91], [-47.37, -15.91], [-47.37, -15.91], [-47.37, -15.91], [-47.37, -15.92], [-47.37, -15.92], [-47.37, -15.92], [-47.37, -15.92], [-47.37, -15.92], [-47.37, -15.92], [-47.36, -15.92], [-47.36, -15.92], [-47.36, -15.92], [-47.36, -15.92], [-47.36, -15.93], [-47.36, -15.93], [-47.36, -15.93], [-47.36, -15.93], [-47.36, -15.93], [-47.36, -15.93], [-47.36, -15.93], [-47.36, -15.93], [-47.37, -15.93], [-47.37, -15.93], [-47.37, -15.93], [-47.37, -15.93], [-47.37, -15.94], [-47.37, -15.94], [-47.37, -15.94], [-47.37, -15.94], [-47.37, -15.94], [-47.37, -15.94], [-47.37, -15.94], [-47.37, -15.94], [-47.37, -15.94], [-47.37, -15.94], [-47.37, -15.94], [-47.37, -15.95], [-47.37, -15.95], [-47.37, -15.95], [-47.37, -15.95], [-47.37, -15.95], [-47.37, -15.95], [-47.37, -15.95], [-47.37, -15.96], [-47.38, -15.96], [-47.37, -15.96], [-47.37, -15.96], [-47.37, -15.96], [-47.38, -15.96], [-47.38, -15.96], [-47.38, -15.97], [-47.38, -15.97], [-47.38, -15.97], [-47.38, -15.97], [-47.38, -15.97], [-47.38, -15.97], [-47.38, -15.97], [-47.38, -15.97], [-47.38, -15.97], [-47.38, -15.98], [-47.38, -15.98], [-47.38, -15.98], [-47.38, -15.98], [-47.37, -15.98], [-47.37, -15.98], [-47.37, -15.98], [-47.38, -15.98], [-47.38, -15.98], [-47.38, -15.99], [-47.38, -15.99], [-47.38, -15.99], [-47.38, -15.99], [-47.37, -15.99], [-47.37, -15.99], [-47.37, -16.0], [-47.37, -16.0], [-47.37, -16.0], [-47.37, -16.0], [-47.37, -16.0], [-47.36, -16.01], [-47.36, -16.01], [-47.36, -16.01], [-47.36, -16.01], [-47.36, -16.01], [-47.36, -16.01], [-47.35, -16.01], [-47.35, -16.01], [-47.35, -16.01], [-47.35, -16.01], [-47.35, -16.01], [-47.35, -16.01], [-47.35, -16.01], [-47.35, -16.01], [-47.34, -16.01], [-47.34, -16.01], [-47.34, -16.01], [-47.34, -16.02], [-47.34, -16.02], [-47.34, -16.02], [-47.34, -16.02], [-47.34, -16.02], [-47.34, -16.02], [-47.34, -16.02], [-47.34, -16.02], [-47.33, -16.02], [-47.33, -16.02], [-47.33, -16.02], [-47.33, -16.03], [-47.33, -16.03], [-47.33, -16.03], [-47.33, -16.03], [-47.33, -16.03], [-47.33, -16.03], [-47.32, -16.03], [-47.32, -16.03], [-47.32, -16.03], [-47.32, -16.03], [-47.32, -16.03], [-47.32, -16.03], [-47.32, -16.03], [-47.32, -16.04], [-47.32, -16.04], [-47.32, -16.04], [-47.32, -16.04], [-47.31, -16.04], [-47.31, -16.04], [-47.31, -16.04], [-47.31, -16.04], [-47.31, -16.04], [-47.31, -16.04], [-47.31, -16.04], [-47.31, -16.05], [-47.31, -16.05], [-47.31, -16.05], [-47.94, -16.05], [-47.94, -16.05], [-47.98, -16.05], [-47.98, -16.05], [-48.0, -16.05], [-48.03, -16.05], [-48.03, -16.05], [-48.07, -16.05], [-48.07, -16.05], [-48.07, -16.05], [-48.07, -16.05], [-48.07, -16.05], [-48.08, -16.05], [-48.08, -16.05], [-48.08, -16.05], [-48.08, -16.05], [-48.08, -16.05], [-48.09, -16.05], [-48.09, -16.05], [-48.09, -16.05], [-48.1, -16.05], [-48.1, -16.05], [-48.28, -16.05], [-48.28, -16.05], [-48.28, -16.04], [-48.28, -16.04], [-48.28, -16.04], [-48.28, -16.04], [-48.28, -16.04], [-48.28, -16.04], [-48.27, -16.04], [-48.27, -16.03], [-48.27, -16.03], [-48.27, -16.03], [-48.27, -16.03], [-48.27, -16.03], [-48.27, -16.03], [-48.27, -16.03], [-48.27, -16.02], [-48.27, -16.02], [-48.27, -16.02], [-48.27, -16.02], [-48.27, -16.02], [-48.27, -16.02], [-48.27, -16.01], [-48.27, -16.01], [-48.27, -16.01], [-48.27, -16.01], [-48.27, -16.01], [-48.27, -16.0], [-48.27, -16.0], [-48.27, -16.0], [-48.27, -16.0], [-48.26, -16.0], [-48.26, -15.99], [-48.26, -15.99], [-48.26, -15.99], [-48.26, -15.99], [-48.26, -15.98], [-48.26, -15.98], [-48.26, -15.98], [-48.26, -15.98], [-48.26, -15.98], [-48.26, -15.98], [-48.26, -15.98], [-48.26, -15.97], [-48.26, -15.97], [-48.26, -15.97], [-48.26, -15.97], [-48.26, -15.97], [-48.26, -15.96], [-48.26, -15.96], [-48.26, -15.96], [-48.26, -15.96], [-48.26, -15.96], [-48.25, -15.96], [-48.25, -15.96], [-48.25, -15.96], [-48.25, -15.96], [-48.25, -15.95], [-48.25, -15.95], [-48.25, -15.95], [-48.25, -15.95], [-48.25, -15.95], [-48.25, -15.94], [-48.25, -15.94], [-48.25, -15.94], [-48.25, -15.94], [-48.25, -15.94], [-48.25, -15.94], [-48.26, -15.93], [-48.26, -15.93], [-48.26, -15.93], [-48.26, -15.93], [-48.26, -15.93], [-48.26, -15.93], [-48.27, -15.93], [-48.27, -15.93], [-48.27, -15.93], [-48.28, -15.93], [-48.27, -15.93], [-48.28, -15.93], [-48.28, -15.93], [-48.28, -15.93], [-48.28, -15.92], [-48.28, -15.92], [-48.28, -15.92], [-48.28, -15.92], [-48.28, -15.92], [-48.27, -15.92], [-48.27, -15.92], [-48.27, -15.92], [-48.27, -15.92], [-48.27, -15.92], [-48.27, -15.92], [-48.27, -15.92], [-48.27, -15.92], [-48.27, -15.92], [-48.27, -15.92], [-48.27, -15.92], [-48.27, -15.91], [-48.27, -15.91], [-48.27, -15.91], [-48.27, -15.91], [-48.28, -15.91], [-48.28, -15.91], [-48.27, -15.91], [-48.27, -15.9], [-48.28, -15.9], [-48.28, -15.9], [-48.28, -15.9], [-48.28, -15.9], [-48.27, -15.9], [-48.27, -15.9], [-48.27, -15.9], [-48.28, -15.9], [-48.28, -15.9], [-48.27, -15.9], [-48.27, -15.89], [-48.28, -15.89], [-48.28, -15.89], [-48.27, -15.89], [-48.27, -15.89], [-48.27, -15.88], [-48.27, -15.88], [-48.27, -15.88], [-48.27, -15.88], [-48.28, -15.88], [-48.28, -15.88], [-48.28, -15.88], [-48.28, -15.88], [-48.28, -15.88], [-48.28, -15.87], [-48.28, -15.87], [-48.28, -15.87], [-48.28, -15.87], [-48.28, -15.87], [-48.28, -15.87], [-48.28, -15.87], [-48.28, -15.87], [-48.28, -15.86], [-48.28, -15.86], [-48.28, -15.86], [-48.28, -15.86], [-48.28, -15.86], [-48.28, -15.86], [-48.28, -15.86], [-48.28, -15.86], [-48.28, -15.86], [-48.28, -15.86], [-48.28, -15.86], [-48.28, -15.86], [-48.28, -15.86], [-48.28, -15.86], [-48.28, -15.85], [-48.28, -15.85], [-48.28, -15.85], [-48.28, -15.85], [-48.28, -15.85], [-48.28, -15.85], [-48.29, -15.85], [-48.28, -15.84], [-48.29, -15.84], [-48.29, -15.84], [-48.28, -15.84], [-48.29, -15.84], [-48.29, -15.84], [-48.28, -15.83], [-48.28, -15.82], [-48.28, -15.82], [-48.28, -15.82], [-48.27, -15.82], [-48.27, -15.81], [-48.27, -15.81], [-48.27, -15.81], [-48.27, -15.81], [-48.27, -15.81], [-48.27, -15.81], [-48.27, -15.81], [-48.27, -15.81], [-48.26, -15.81], [-48.26, -15.81], [-48.26, -15.81], [-48.26, -15.81], [-48.26, -15.81], [-48.26, -15.8], [-48.26, -15.8], [-48.26, -15.8], [-48.26, -15.8], [-48.25, -15.8], [-48.25, -15.8], [-48.25, -15.8], [-48.25, -15.8], [-48.25, -15.8], [-48.25, -15.8], [-48.25, -15.8], [-48.25, -15.8], [-48.25, -15.8], [-48.25, -15.8], [-48.25, -15.8], [-48.25, -15.8], [-48.25, -15.8], [-48.24, -15.8], [-48.24, -15.8], [-48.24, -15.8], [-48.24, -15.8], [-48.24, -15.79], [-48.24, -15.79], [-48.24, -15.79], [-48.24, -15.79], [-48.24, -15.79], [-48.24, -15.79], [-48.24, -15.79], [-48.23, -15.78], [-48.23, -15.78], [-48.23, -15.78], [-48.23, -15.77], [-48.23, -15.77], [-48.23, -15.77], [-48.22, -15.77], [-48.22, -15.77], [-48.22, -15.76], [-48.22, -15.77], [-48.22, -15.76], [-48.22, -15.76], [-48.21, -15.75], [-48.21, -15.75], [-48.21, -15.74], [-48.22, -15.74], [-48.22, -15.74], [-48.22, -15.74], [-48.21, -15.74], [-48.21, -15.74], [-48.21, -15.73], [-48.21, -15.72], [-48.21, -15.72], [-48.21, -15.71], [-48.22, -15.71], [-48.22, -15.71], [-48.23, -15.71], [-48.23, -15.71], [-48.23, -15.71], [-48.23, -15.71], [-48.23, -15.71], [-48.24, -15.71], [-48.24, -15.71], [-48.24, -15.71], [-48.24, -15.71], [-48.24, -15.7], [-48.24, -15.7], [-48.24, -15.7], [-48.24, -15.7], [-48.24, -15.69], [-48.24, -15.69], [-48.24, -15.69], [-48.23, -15.67], [-48.24, -15.66], [-48.23, -15.66], [-48.24, -15.65], [-48.24, -15.65], [-48.23, -15.64], [-48.23, -15.64], [-48.23, -15.63], [-48.23, -15.63], [-48.23, -15.63], [-48.22, -15.63], [-48.22, -15.62], [-48.21, -15.62], [-48.2, -15.62], [-48.2, -15.62], [-48.2, -15.62], [-48.2, -15.62], [-48.2, -15.61], [-48.2, -15.6], [-48.2, -15.5], [-48.05, -15.5]]]]}, "properties": {"id": 2820, "name": "Bras\u00edlia/DF", "geocod_ibge": "5300108", "value": 0.82, "style": {"color": "#d7d7d7", "fillcolor": "#F40000", "weight": 1}}}]}